start=new Date('2021-12-27T00:00:00.000Z').valueOf();
sats=[{"PERIOD":"93.478","LAUNCH_DATE":"2021-12-02","ECCENTRICITY":"0.00022770","OBJECT_ID":"2021-115AW","DECAY_DATE":null,"ARG_OF_PERICENTER":"34.3678","REV_AT_EPOCH":"363","EPHEMERIS_TYPE":"0","EPOCH":"2021-12-26T22:00:00.999936","ELEMENT_SET_NO":"999","TIME_SYSTEM":"UTC","TLE_LINE1":"1 49768U 21115AW  21360.91667824 -.00013145  00000-0 -31032-3 0  9997","FILE":"3251846","MEAN_ELEMENT_THEORY":"SGP4","CLASSIFICATION_TYPE":"U","COUNTRY_CODE":"US","MEAN_ANOMALY":"78.4913","SITE":"AFETR","APOAPSIS":"446.292","INCLINATION":"53.2159","RCS_SIZE":"LARGE","MEAN_MOTION_DDOT":"0.0000000000000","PERIAPSIS":"443.185","MEAN_MOTION":"15.40464733","OBJECT_NAME":"STARLINK-3196","REF_FRAME":"TEME","CENTER_NAME":"EARTH","BSTAR":"-0.00031032000000","RA_OF_ASC_NODE":"204.3769","GP_ID":"192527286","NORAD_CAT_ID":"49768","TLE_LINE2":"2 49768  53.2159 204.3769 0002277  34.3678  78.4913 15.40464733  3632","OBJECT_TYPE":"PAYLOAD","MEAN_MOTION_DOT":"-0.00013145","SEMIMAJOR_AXIS":"6822.874"},{"MEAN_ANOMALY":"80.4016","APOAPSIS":"446.275","SITE":"AFETR","MEAN_MOTION_DDOT":"0.0000000000000","RCS_SIZE":"LARGE","INCLINATION":"53.2164","REV_AT_EPOCH":"495","ELEMENT_SET_NO":"999","EPHEMERIS_TYPE":"0","EPOCH":"2021-12-26T22:00:00.999936","TLE_LINE1":"1 49769U 21115AX  21360.91667824  .00023198  00000-0  57239-3 0  9992","CLASSIFICATION_TYPE":"U","FILE":"3251798","MEAN_ELEMENT_THEORY":"SGP4","TIME_SYSTEM":"UTC","COUNTRY_CODE":"US","OBJECT_ID":"2021-115AX","ECCENTRICITY":"0.00021870","ARG_OF_PERICENTER":"33.4817","DECAY_DATE":null,"PERIOD":"93.479","LAUNCH_DATE":"2021-12-02","TLE_LINE2":"2 49769  53.2164 204.3761 0002187  33.4817  80.4016 15.40449681  4954","MEAN_MOTION_DOT":"0.00023198","OBJECT_TYPE":"PAYLOAD","SEMIMAJOR_AXIS":"6822.918","RA_OF_ASC_NODE":"204.3761","GP_ID":"192502172","NORAD_CAT_ID":"49769","REF_FRAME":"TEME","BSTAR":"0.00057239000000","CENTER_NAME":"EARTH","PERIAPSIS":"443.291","MEAN_MOTION":"15.40449681","OBJECT_NAME":"STARLINK-3208"},{"REV_AT_EPOCH":"363","ELEMENT_SET_NO":"999","EPHEMERIS_TYPE":"0","EPOCH":"2021-12-26T22:00:00.999936","TLE_LINE1":"1 49770U 21115AY  21360.91667824  .00020869  00000-0  51610-3 0  9993","MEAN_ELEMENT_THEORY":"SGP4","FILE":"3251846","CLASSIFICATION_TYPE":"U","TIME_SYSTEM":"UTC","COUNTRY_CODE":"US","MEAN_ANOMALY":"76.7544","APOAPSIS":"446.309","SITE":"AFETR","MEAN_MOTION_DDOT":"0.0000000000000","INCLINATION":"53.2159","RCS_SIZE":"LARGE","PERIOD":"93.479","LAUNCH_DATE":"2021-12-02","OBJECT_ID":"2021-115AY","ECCENTRICITY":"0.00022260","ARG_OF_PERICENTER":"35.0260","DECAY_DATE":null,"RA_OF_ASC_NODE":"204.3790","GP_ID":"192526817","NORAD_CAT_ID":"49770","TLE_LINE2":"2 49770  53.2159 204.3790 0002226  35.0260  76.7544 15.40447392  3631","MEAN_MOTION_DOT":"0.00020869","OBJECT_TYPE":"PAYLOAD","SEMIMAJOR_AXIS":"6822.925","PERIAPSIS":"443.271","OBJECT_NAME":"STARLINK-3191","MEAN_MOTION":"15.40447392","REF_FRAME":"TEME","BSTAR":"0.00051610000000","CENTER_NAME":"EARTH"},{"PERIAPSIS":"443.501","OBJECT_NAME":"STARLINK-3201","MEAN_MOTION":"15.40467216","BSTAR":"-0.00027091000000","CENTER_NAME":"EARTH","REF_FRAME":"TEME","NORAD_CAT_ID":"49771","RA_OF_ASC_NODE":"204.3822","GP_ID":"192502988","SEMIMAJOR_AXIS":"6822.866","TLE_LINE2":"2 49771  53.2164 204.3822 0001803  44.3638  66.3748 15.40467216  4950","OBJECT_TYPE":"PAYLOAD","MEAN_MOTION_DOT":"-0.00011530","LAUNCH_DATE":"2021-12-02","PERIOD":"93.478","DECAY_DATE":null,"ARG_OF_PERICENTER":"44.3638","OBJECT_ID":"2021-115AZ","ECCENTRICITY":"0.00018030","TIME_SYSTEM":"UTC","TLE_LINE1":"1 49771U 21115AZ  21360.91667824 -.00011530  00000-0 -27091-3 0  9997","FILE":"3251825","CLASSIFICATION_TYPE":"U","MEAN_ELEMENT_THEORY":"SGP4","COUNTRY_CODE":"US","REV_AT_EPOCH":"495","EPHEMERIS_TYPE":"0","EPOCH":"2021-12-26T22:00:00.999936","ELEMENT_SET_NO":"999","INCLINATION":"53.2164","RCS_SIZE":"LARGE","MEAN_MOTION_DDOT":"0.0000000000000","MEAN_ANOMALY":"66.3748","SITE":"AFETR","APOAPSIS":"445.962"},{"GP_ID":"192501026","RA_OF_ASC_NODE":"324.8600","NORAD_CAT_ID":"50156","MEAN_MOTION_DOT":"-0.00870087","OBJECT_TYPE":"PAYLOAD","TLE_LINE2":"2 50156  53.2176 324.8600 0037389 188.2042 339.1036 15.92488070  4138","SEMIMAJOR_AXIS":"6673.460","MEAN_MOTION":"15.92488070","OBJECT_NAME":"STARLINK-3317","PERIAPSIS":"270.373","REF_FRAME":"TEME","CENTER_NAME":"EARTH","BSTAR":"-0.00232790000000","ELEMENT_SET_NO":"999","EPOCH":"2021-12-26T22:00:00.999936","EPHEMERIS_TYPE":"0","REV_AT_EPOCH":"413","COUNTRY_CODE":"US","FILE":"3251720","TLE_LINE1":"1 50156U 21125A   21360.91667824 -.00870087  23917-3 -23279-2 0  9995","CLASSIFICATION_TYPE":"U","MEAN_ELEMENT_THEORY":"SGP4","TIME_SYSTEM":"UTC","APOAPSIS":"320.276","SITE":"AFWTR","MEAN_ANOMALY":"339.1036","MEAN_MOTION_DDOT":"0.0002391700000","RCS_SIZE":null,"INCLINATION":"53.2176","PERIOD":"90.425","LAUNCH_DATE":"2021-12-18","OBJECT_ID":"2021-125A","ECCENTRICITY":"0.00373890","ARG_OF_PERICENTER":"188.2042","DECAY_DATE":null},{"OBJECT_ID":"2021-125B","ECCENTRICITY":"0.00366110","DECAY_DATE":null,"ARG_OF_PERICENTER":"188.3744","PERIOD":"90.424","LAUNCH_DATE":"2021-12-18","SITE":"AFWTR","APOAPSIS":"319.725","MEAN_ANOMALY":"339.4116","RCS_SIZE":null,"INCLINATION":"53.2176","MEAN_MOTION_DDOT":"0.0002391700000","EPHEMERIS_TYPE":"0","EPOCH":"2021-12-26T22:00:00.999936","ELEMENT_SET_NO":"999","REV_AT_EPOCH":"179","COUNTRY_CODE":"US","TIME_SYSTEM":"UTC","TLE_LINE1":"1 50157U 21125B   21360.91667824 -.00870026  23917-3 -23328-2 0  9994","CLASSIFICATION_TYPE":"U","FILE":"3251846","MEAN_ELEMENT_THEORY":"SGP4","REF_FRAME":"TEME","BSTAR":"-0.00233280000000","CENTER_NAME":"EARTH","MEAN_MOTION":"15.92499608","OBJECT_NAME":"STARLINK-3313","PERIAPSIS":"270.860","OBJECT_TYPE":"PAYLOAD","MEAN_MOTION_DOT":"-0.00870026","TLE_LINE2":"2 50157  53.2176 324.8591 0036611 188.3744 339.4116 15.92499608  1795","SEMIMAJOR_AXIS":"6673.428","GP_ID":"192527333","RA_OF_ASC_NODE":"324.8591","NORAD_CAT_ID":"50157"},{"REF_FRAME":"TEME","CENTER_NAME":"EARTH","BSTAR":"-0.00233050000000","PERIAPSIS":"270.909","MEAN_MOTION":"15.92536908","OBJECT_NAME":"STARLINK-3309","TLE_LINE2":"2 50158  53.2176 324.8561 0036382 188.4142 340.7087 15.92536908  1798","MEAN_MOTION_DOT":"-0.00870207","OBJECT_TYPE":"PAYLOAD","SEMIMAJOR_AXIS":"6673.323","RA_OF_ASC_NODE":"324.8561","GP_ID":"192526153","NORAD_CAT_ID":"50158","OBJECT_ID":"2021-125C","ECCENTRICITY":"0.00363820","ARG_OF_PERICENTER":"188.4142","DECAY_DATE":null,"PERIOD":"90.422","LAUNCH_DATE":"2021-12-18","MEAN_ANOMALY":"340.7087","APOAPSIS":"319.467","SITE":"AFWTR","MEAN_MOTION_DDOT":"0.0002393400000","RCS_SIZE":null,"INCLINATION":"53.2176","REV_AT_EPOCH":"179","ELEMENT_SET_NO":"999","EPOCH":"2021-12-26T22:00:00.999936","EPHEMERIS_TYPE":"0","TLE_LINE1":"1 50158U 21125C   21360.91667824 -.00870207  23934-3 -23305-2 0  9990","MEAN_ELEMENT_THEORY":"SGP4","FILE":"3251846","CLASSIFICATION_TYPE":"U","TIME_SYSTEM":"UTC","COUNTRY_CODE":"US"},{"OBJECT_NAME":"STARLINK-3297","MEAN_MOTION":"15.92553790","PERIAPSIS":"270.694","BSTAR":"-0.00232550000000","CENTER_NAME":"EARTH","REF_FRAME":"TEME","NORAD_CAT_ID":"50159","GP_ID":"192501087","RA_OF_ASC_NODE":"324.8558","SEMIMAJOR_AXIS":"6673.276","OBJECT_TYPE":"PAYLOAD","MEAN_MOTION_DOT":"-0.00869913","TLE_LINE2":"2 50159  53.2176 324.8558 0036635 188.1869 341.1966 15.92553790  1079","LAUNCH_DATE":"2021-12-18","PERIOD":"90.421","DECAY_DATE":null,"ARG_OF_PERICENTER":"188.1869","ECCENTRICITY":"0.00366350","OBJECT_ID":"2021-125D","COUNTRY_CODE":"US","TIME_SYSTEM":"UTC","TLE_LINE1":"1 50159U 21125D   21360.91667824 -.00869913  23924-3 -23255-2 0  9996","FILE":"3251720","MEAN_ELEMENT_THEORY":"SGP4","CLASSIFICATION_TYPE":"U","EPHEMERIS_TYPE":"0","EPOCH":"2021-12-26T22:00:00.999936","ELEMENT_SET_NO":"999","REV_AT_EPOCH":"107","RCS_SIZE":null,"INCLINATION":"53.2176","MEAN_MOTION_DDOT":"0.0002392400000","SITE":"AFWTR","APOAPSIS":"319.589","MEAN_ANOMALY":"341.1966"},{"FILE":"3251846","TLE_LINE1":"1 50160U 21125E   21360.91667824 -.00870568  23949-3 -23368-2 0  9998","CLASSIFICATION_TYPE":"U","MEAN_ELEMENT_THEORY":"SGP4","TIME_SYSTEM":"UTC","COUNTRY_CODE":"US","REV_AT_EPOCH":"179","ELEMENT_SET_NO":"999","EPOCH":"2021-12-26T22:00:00.999936","EPHEMERIS_TYPE":"0","MEAN_MOTION_DDOT":"0.0002394900000","RCS_SIZE":null,"INCLINATION":"53.2176","MEAN_ANOMALY":"340.1714","APOAPSIS":"319.188","SITE":"AFWTR","LAUNCH_DATE":"2021-12-18","PERIOD":"90.422","ARG_OF_PERICENTER":"188.4910","DECAY_DATE":null,"OBJECT_ID":"2021-125E","ECCENTRICITY":"0.00359140","NORAD_CAT_ID":"50160","RA_OF_ASC_NODE":"324.8571","GP_ID":"192527100","SEMIMAJOR_AXIS":"6673.356","TLE_LINE2":"2 50160  53.2176 324.8571 0035914 188.4910 340.1714 15.92525076  1790","MEAN_MOTION_DOT":"-0.00870568","OBJECT_TYPE":"PAYLOAD","PERIAPSIS":"271.255","MEAN_MOTION":"15.92525076","OBJECT_NAME":"STARLINK-3288","BSTAR":"-0.00233680000000","CENTER_NAME":"EARTH","REF_FRAME":"TEME"},{"OBJECT_NAME":"STARLINK-3304","MEAN_MOTION":"15.92509640","PERIAPSIS":"271.010","BSTAR":"-0.00233480000000","CENTER_NAME":"EARTH","REF_FRAME":"TEME","NORAD_CAT_ID":"50161","GP_ID":"192502226","RA_OF_ASC_NODE":"324.8579","SEMIMAJOR_AXIS":"6673.400","OBJECT_TYPE":"PAYLOAD","MEAN_MOTION_DOT":"-0.00870418","TLE_LINE2":"2 50161  53.2176 324.8579 0036345 188.1981 340.1367 15.92509640  4137","LAUNCH_DATE":"2021-12-18","PERIOD":"90.423","DECAY_DATE":null,"ARG_OF_PERICENTER":"188.1981","OBJECT_ID":"2021-125F","ECCENTRICITY":"0.00363450","COUNTRY_CODE":"US","TIME_SYSTEM":"UTC","FILE":"3251799","TLE_LINE1":"1 50161U 21125F   21360.91667824 -.00870418  23938-3 -23348-2 0  9999","CLASSIFICATION_TYPE":"U","MEAN_ELEMENT_THEORY":"SGP4","EPOCH":"2021-12-26T22:00:00.999936","EPHEMERIS_TYPE":"0","ELEMENT_SET_NO":"999","REV_AT_EPOCH":"413","INCLINATION":"53.2176","RCS_SIZE":null,"MEAN_MOTION_DDOT":"0.0002393800000","SITE":"AFWTR","APOAPSIS":"319.519","MEAN_ANOMALY":"340.1367"}];
